{
  "type": "FeatureCollection",
  "name": "plots_ULY_Y_96_MGA2020",
  "features": [
    {
      "type": "Feature",
      "properties": {
        "fid": 326,
        "site": "ULY_Y_96",
        "plot_number": 1,
        "site_type": "ULY"
      },
      "geometry": {
        "type": "Polygon",
        "coordinates": [
          [
            [
              455348.47617770656,
              5275834.5167898685
            ],
            [
              455348.1540817383,
              5275884.5157525325
            ],
            [
              455398.63252946315,
              5275884.840937369
            ],
            [
              455398.9546254294,
              5275834.841974704
            ],
            [
              455348.47617770656,
              5275834.5167898685
            ]
          ]
        ]
      }
    },
    {
      "type": "Feature",
      "properties": {
        "fid": 327,
        "site": "ULY_Y_96",
        "plot_number": 2,
        "site_type": "ULY"
      },
      "geometry": {
        "type": "Polygon",
        "coordinates": [
          [
            [
              455296.57560532016,
              5275837.224455269
            ],
            [
              455299.2229550635,
              5275887.15432161
            ],
            [
              455349.63880459557,
              5275884.481204373
            ],
            [
              455346.99145485193,
              5275834.551338033
            ],
            [
              455296.57560532016,
              5275837.224455269
            ]
          ]
        ]
      }
    },
    {
      "type": "Feature",
      "properties": {
        "fid": 328,
        "site": "ULY_Y_96",
        "plot_number": 3,
        "site_type": "ULY"
      },
      "geometry": {
        "type": "Polygon",
        "coordinates": [
          [
            [
              455252.09206257405,
              5275834.159628431
            ],
            [
              455248.8493947185,
              5275884.054368822
            ],
            [
              455296.27794626384,
              5275887.136758633
            ],
            [
              455299.52061411797,
              5275837.242018243
            ],
            [
              455252.09206257405,
              5275834.159628431
            ]
          ]
        ]
      }
    },
    {
      "type": "Feature",
      "properties": {
        "fid": 329,
        "site": "ULY_Y_96",
        "plot_number": 4,
        "site_type": "ULY"
      },
      "geometry": {
        "type": "Polygon",
        "coordinates": [
          [
            [
              455260.87274699804,
              5275804.177208784
            ],
            [
              455212.77130273543,
              5275817.824592159
            ],
            [
              455226.4200065146,
              5275865.930690314
            ],
            [
              455274.52145077847,
              5275852.283306939
            ],
            [
              455260.87274699804,
              5275804.177208784
            ]
          ]
        ]
      }
    },
    {
      "type": "Feature",
      "properties": {
        "fid": 330,
        "site": "ULY_Y_96",
        "plot_number": 5,
        "site_type": "ULY"
      },
      "geometry": {
        "type": "Polygon",
        "coordinates": [
          [
            [
              455248.9272325581,
              5275757.26640173
            ],
            [
              455200.4758156567,
              5275769.613879748
            ],
            [
              455212.5963164143,
              5275817.174639482
            ],
            [
              455261.0477333181,
              5275804.827161463
            ],
            [
              455248.9272325581,
              5275757.26640173
            ]
          ]
        ]
      }
    }
  ],
  "crs": {
    "type": "name",
    "properties": {
      "name": "urn:ogc:def:crs:EPSG::7855"
    }
  }
}