{
  "type": "FeatureCollection",
  "name": "plots_ULO_188_MGA2020",
  "features": [
    {
      "type": "Feature",
      "properties": {
        "fid": 281,
        "site": "ULO_188",
        "plot_number": 1,
        "site_type": "ULO"
      },
      "geometry": {
        "type": "Polygon",
        "coordinates": [
          [
            [
              468065.68430549005,
              5290791.397525059
            ],
            [
              468018.24562090967,
              5290775.599701812
            ],
            [
              468002.59061417397,
              5290822.609528113
            ],
            [
              468050.02929875377,
              5290838.40735136
            ],
            [
              468065.68430549005,
              5290791.397525059
            ]
          ]
        ]
      }
    },
    {
      "type": "Feature",
      "properties": {
        "fid": 282,
        "site": "ULO_188",
        "plot_number": 2,
        "site_type": "ULO"
      },
      "geometry": {
        "type": "Polygon",
        "coordinates": [
          [
            [
              468086.36476146674,
              5290749.056458743
            ],
            [
              468041.34176639817,
              5290727.309506557
            ],
            [
              468019.4534656666,
              5290772.625137344
            ],
            [
              468064.47646073235,
              5290794.372089529
            ],
            [
              468086.36476146674,
              5290749.056458743
            ]
          ]
        ]
      }
    },
    {
      "type": "Feature",
      "properties": {
        "fid": 283,
        "site": "ULO_188",
        "plot_number": 3,
        "site_type": "ULO"
      },
      "geometry": {
        "type": "Polygon",
        "coordinates": [
          [
            [
              468103.1112101531,
              5290698.4867970515
            ],
            [
              468055.5800204693,
              5290682.969515676
            ],
            [
              468040.08766909014,
              5290730.424341964
            ],
            [
              468087.618858774,
              5290745.941623339
            ],
            [
              468103.1112101531,
              5290698.4867970515
            ]
          ]
        ]
      }
    },
    {
      "type": "Feature",
      "properties": {
        "fid": 284,
        "site": "ULO_188",
        "plot_number": 4,
        "site_type": "ULO"
      },
      "geometry": {
        "type": "Polygon",
        "coordinates": [
          [
            [
              468121.6329147494,
              5290649.051941431
            ],
            [
              468074.8038653898,
              5290631.529380256
            ],
            [
              468055.9310906314,
              5290681.966875774
            ],
            [
              468102.76013999135,
              5290699.489436951
            ],
            [
              468121.6329147494,
              5290649.051941431
            ]
          ]
        ]
      }
    },
    {
      "type": "Feature",
      "properties": {
        "fid": 285,
        "site": "ULO_188",
        "plot_number": 5,
        "site_type": "ULO"
      },
      "geometry": {
        "type": "Polygon",
        "coordinates": [
          [
            [
              468138.601676647,
              5290615.774223429
            ],
            [
              468093.96768405783,
              5290593.2396562155
            ],
            [
              468075.9013937752,
              5290629.023377236
            ],
            [
              468120.53538636543,
              5290651.5579444505
            ],
            [
              468138.601676647,
              5290615.774223429
            ]
          ]
        ]
      }
    }
  ],
  "crs": {
    "type": "name",
    "properties": {
      "name": "urn:ogc:def:crs:EPSG::7855"
    }
  }
}