{
  "type": "FeatureCollection",
  "name": "plots_ULY_Y_231_MGA2020",
  "features": [
    {
      "type": "Feature",
      "properties": {
        "fid": 311,
        "site": "ULY_Y_231",
        "plot_number": 1,
        "site_type": "ULY"
      },
      "geometry": {
        "type": "Polygon",
        "coordinates": [
          [
            [
              457640.95478070003,
              5268525.589535509
            ],
            [
              457621.528830307,
              5268479.517499907
            ],
            [
              457575.3213346464,
              5268499.000566082
            ],
            [
              457594.7472850379,
              5268545.072601687
            ],
            [
              457640.95478070003,
              5268525.589535509
            ]
          ]
        ]
      }
    },
    {
      "type": "Feature",
      "properties": {
        "fid": 317,
        "site": "ULY_Y_231",
        "plot_number": 2,
        "site_type": "ULY"
      },
      "geometry": {
        "type": "Polygon",
        "coordinates": [
          [
            [
              457685.77294573607,
              5268511.713829467
            ],
            [
              457670.86752744764,
              5268463.987227669
            ],
            [
              457623.789096358,
              5268478.690216808
            ],
            [
              457638.6945146483,
              5268526.416818608
            ],
            [
              457685.77294573607,
              5268511.713829467
            ]
          ]
        ]
      }
    },
    {
      "type": "Feature",
      "properties": {
        "fid": 318,
        "site": "ULY_Y_231",
        "plot_number": 3,
        "site_type": "ULY"
      },
      "geometry": {
        "type": "Polygon",
        "coordinates": [
          [
            [
              457734.7433807672,
              5268498.396334131
            ],
            [
              457721.6062996285,
              5268450.153022543
            ],
            [
              457671.7516960217,
              5268463.728872775
            ],
            [
              457684.8887771605,
              5268511.972184362
            ],
            [
              457734.7433807672,
              5268498.396334131
            ]
          ]
        ]
      }
    },
    {
      "type": "Feature",
      "properties": {
        "fid": 319,
        "site": "ULY_Y_231",
        "plot_number": 4,
        "site_type": "ULY"
      },
      "geometry": {
        "type": "Polygon",
        "coordinates": [
          [
            [
              457781.49207665614,
              5268483.093742167
            ],
            [
              457765.9057732755,
              5268435.5851412555
            ],
            [
              457720.3816885074,
              5268450.520377883
            ],
            [
              457735.96799188893,
              5268498.028978793
            ],
            [
              457781.49207665614,
              5268483.093742167
            ]
          ]
        ]
      }
    },
    {
      "type": "Feature",
      "properties": {
        "fid": 320,
        "site": "ULY_Y_231",
        "plot_number": 5,
        "site_type": "ULY"
      },
      "geometry": {
        "type": "Polygon",
        "coordinates": [
          [
            [
              457829.28810031037,
              5268465.280381816
            ],
            [
              457811.80813474685,
              5268418.435416054
            ],
            [
              457764.95894218364,
              5268435.916958828
            ],
            [
              457782.4389077466,
              5268482.761924594
            ],
            [
              457829.28810031037,
              5268465.280381816
            ]
          ]
        ]
      }
    }
  ],
  "crs": {
    "type": "name",
    "properties": {
      "name": "urn:ogc:def:crs:EPSG::7855"
    }
  }
}