{
  "type": "FeatureCollection",
  "name": "plots_ULM_27_MGA2020",
  "features": [
    {
      "type": "Feature",
      "properties": {
        "fid": 246,
        "site": "ULM_27",
        "plot_number": 1,
        "site_type": "ULM"
      },
      "geometry": {
        "type": "Polygon",
        "coordinates": [
          [
            [
              453703.8098898557,
              5288840.316327219
            ],
            [
              453695.4248849067,
              5288889.608230259
            ],
            [
              453745.6971584948,
              5288898.160005235
            ],
            [
              453754.0821634425,
              5288848.868102193
            ],
            [
              453703.8098898557,
              5288840.316327219
            ]
          ]
        ]
      }
    },
    {
      "type": "Feature",
      "properties": {
        "fid": 247,
        "site": "ULM_27",
        "plot_number": 2,
        "site_type": "ULM"
      },
      "geometry": {
        "type": "Polygon",
        "coordinates": [
          [
            [
              453655.25970528525,
              5288835.54761857
            ],
            [
              453650.4380255357,
              5288885.314589725
            ],
            [
              453697.2065475078,
              5288889.8457643185
            ],
            [
              453702.0282272552,
              5288840.078793161
            ],
            [
              453655.25970528525,
              5288835.54761857
            ]
          ]
        ]
      }
    },
    {
      "type": "Feature",
      "properties": {
        "fid": 248,
        "site": "ULM_27",
        "plot_number": 3,
        "site_type": "ULM"
      },
      "geometry": {
        "type": "Polygon",
        "coordinates": [
          [
            [
              453602.8848294866,
              5288836.326555803
            ],
            [
              453603.784833861,
              5288886.318455206
            ],
            [
              453653.29886759736,
              5288885.427053847
            ],
            [
              453652.39886322315,
              5288835.4351544455
            ],
            [
              453602.8848294866,
              5288836.326555803
            ]
          ]
        ]
      }
    },
    {
      "type": "Feature",
      "properties": {
        "fid": 249,
        "site": "ULM_27",
        "plot_number": 4,
        "site_type": "ULM"
      },
      "geometry": {
        "type": "Polygon",
        "coordinates": [
          [
            [
              453556.9131604354,
              5288829.777726145
            ],
            [
              453550.17392614274,
              5288879.321471812
            ],
            [
              453599.9652145248,
              5288886.094378338
            ],
            [
              453606.7044488198,
              5288836.550632673
            ],
            [
              453556.9131604354,
              5288829.777726145
            ]
          ]
        ]
      }
    },
    {
      "type": "Feature",
      "properties": {
        "fid": 250,
        "site": "ULM_27",
        "plot_number": 5,
        "site_type": "ULM"
      },
      "geometry": {
        "type": "Polygon",
        "coordinates": [
          [
            [
              453504.5967778974,
              5288821.923612681
            ],
            [
              453497.17581919604,
              5288871.369839893
            ],
            [
              453549.83306393854,
              5288879.2727125855
            ],
            [
              453557.2540226413,
              5288829.826485373
            ],
            [
              453504.5967778974,
              5288821.923612681
            ]
          ]
        ]
      }
    }
  ],
  "crs": {
    "type": "name",
    "properties": {
      "name": "urn:ogc:def:crs:EPSG::7855"
    }
  }
}