{
    "type": "FeatureCollection",
    "name": "plots_AGG_O_01_MGA2020",
    "features": [
        {
            "type": "Feature",
            "properties": {
                "fid": 1,
                "site": "AGG_O_01",
                "plot_number": 1,
                "site_type": "AGG"
            },
            "geometry": {
                "type": "Polygon",
                "coordinates": [
                    [
                        [463042.83002541395, 5259846.735807601],
                        [463025.79692534194, 5259799.726515798],
                        [462975.6639067796, 5259817.891450633],
                        [462992.69700685085, 5259864.900742435],
                        [463042.83002541395, 5259846.735807601]
                    ]
                ]
            }
        },
        {
            "type": "Feature",
            "properties": {
                "fid": 2,
                "site": "AGG_O_01",
                "plot_number": 2,
                "site_type": "AGG"
            },
            "geometry": {
                "type": "Polygon",
                "coordinates": [
                    [
                        [463124.5559705289, 5259819.234357965],
                        [463116.0676977193, 5259769.960133075],
                        [463069.17769627925, 5259778.03768529],
                        [463077.66596909094, 5259827.311910177],
                        [463124.5559705289, 5259819.234357965]
                    ]
                ]
            }
        },
        {
            "type": "Feature",
            "properties": {
                "fid": 3,
                "site": "AGG_O_01",
                "plot_number": 3,
                "site_type": "AGG"
            },
            "geometry": {
                "type": "Polygon",
                "coordinates": [
                    [
                        [463201.17420314753, 5259815.8060143525],
                        [463200.5510703047, 5259765.809897311],
                        [463143.57647950767, 5259766.520007233],
                        [463144.1996123493, 5259816.516124275],
                        [463201.17420314753, 5259815.8060143525]
                    ]
                ]
            }
        },
        {
            "type": "Feature",
            "properties": {
                "fid": 4,
                "site": "AGG_O_01",
                "plot_number": 4,
                "site_type": "AGG"
            },
            "geometry": {
                "type": "Polygon",
                "coordinates": [
                    [
                        [463257.7765840342, 5259801.962108289],
                        [463245.30290701694, 5259753.543027388],
                        [463194.62579821685, 5259766.598415383],
                        [463207.099475233, 5259815.017496282],
                        [463257.7765840342, 5259801.962108289]
                    ]
                ]
            }
        },
        {
            "type": "Feature",
            "properties": {
                "fid": 5,
                "site": "AGG_O_01",
                "plot_number": 5,
                "site_type": "AGG"
            },
            "geometry": {
                "type": "Polygon",
                "coordinates": [
                    [
                        [463303.0221890787, 5259789.552384787],
                        [463289.7937491529, 5259741.334043972],
                        [463244.9255255624, 5259753.643397431],
                        [463258.15396548726, 5259801.861738248],
                        [463303.0221890787, 5259789.552384787]
                    ]
                ]
            }
        }
    ],
    "crs": {
        "type": "name",
        "properties": {
            "name": "urn:ogc:def:crs:EPSG::7855"
        }
    }
}
