{
  "type": "FeatureCollection",
  "name": "plots_PPO_Y_17_MGA2020",
  "features": [
    {
      "type": "Feature",
      "properties": {
        "fid": 206,
        "site": "PPO_Y_17",
        "plot_number": 1,
        "site_type": "PPO"
      },
      "geometry": {
        "type": "Polygon",
        "coordinates": [
          [
            [
              456384.9754425022,
              5313232.055655354
            ],
            [
              456347.62540179887,
              5313198.814499037
            ],
            [
              456314.6033800562,
              5313235.91831831
            ],
            [
              456351.9534207604,
              5313269.159474622
            ],
            [
              456384.9754425022,
              5313232.055655354
            ]
          ]
        ]
      }
    },
    {
      "type": "Feature",
      "properties": {
        "fid": 207,
        "site": "PPO_Y_17",
        "plot_number": 2,
        "site_type": "PPO"
      },
      "geometry": {
        "type": "Polygon",
        "coordinates": [
          [
            [
              456414.16423887626,
              5313183.989135455
            ],
            [
              456371.22192419856,
              5313158.377465773
            ],
            [
              456344.82926481275,
              5313202.629242354
            ],
            [
              456387.7715794895,
              5313228.240912037
            ],
            [
              456414.16423887626,
              5313183.989135455
            ]
          ]
        ]
      }
    },
    {
      "type": "Feature",
      "properties": {
        "fid": 208,
        "site": "PPO_Y_17",
        "plot_number": 3,
        "site_type": "PPO"
      },
      "geometry": {
        "type": "Polygon",
        "coordinates": [
          [
            [
              456437.49372854375,
              5313145.8406365495
            ],
            [
              456394.83696698863,
              5313119.756144856
            ],
            [
              456371.3647007582,
              5313158.141054767
            ],
            [
              456414.0214623166,
              5313184.2255464615
            ],
            [
              456437.49372854375,
              5313145.8406365495
            ]
          ]
        ]
      }
    },
    {
      "type": "Feature",
      "properties": {
        "fid": 209,
        "site": "PPO_Y_17",
        "plot_number": 4,
        "site_type": "PPO"
      },
      "geometry": {
        "type": "Polygon",
        "coordinates": [
          [
            [
              456464.87391982577,
              5313095.617241646
            ],
            [
              456420.9606555293,
              5313071.708556351
            ],
            [
              456394.20871561795,
              5313120.844048058
            ],
            [
              456438.12197991525,
              5313144.75273335
            ],
            [
              456464.87391982577,
              5313095.617241646
            ]
          ]
        ]
      }
    },
    {
      "type": "Feature",
      "properties": {
        "fid": 210,
        "site": "PPO_Y_17",
        "plot_number": 5,
        "site_type": "PPO"
      },
      "geometry": {
        "type": "Polygon",
        "coordinates": [
          [
            [
              456485.98006346636,
              5313046.399601626
            ],
            [
              456439.9852675328,
              5313026.791471658
            ],
            [
              456419.9198897114,
              5313073.858834014
            ],
            [
              456465.91468564386,
              5313093.466963983
            ],
            [
              456485.98006346636,
              5313046.399601626
            ]
          ]
        ]
      }
    }
  ],
  "crs": {
    "type": "name",
    "properties": {
      "name": "urn:ogc:def:crs:EPSG::7855"
    }
  }
}