{
  "type": "FeatureCollection",
  "name": "plots_NRM_O_19_MGA2020",
  "features": [
    {
      "type": "Feature",
      "properties": {
        "fid": 101,
        "site": "NRM_O_19",
        "plot_number": 1,
        "site_type": "NRM"
      },
      "geometry": {
        "type": "Polygon",
        "coordinates": [
          [
            [
              452754.93135236483,
              5313680.309558053
            ],
            [
              452726.5049626775,
              5313639.176355129
            ],
            [
              452683.5414910843,
              5313668.867609376
            ],
            [
              452711.9678807745,
              5313710.000812299
            ],
            [
              452754.93135236483,
              5313680.309558053
            ]
          ]
        ]
      }
    },
    {
      "type": "Feature",
      "properties": {
        "fid": 102,
        "site": "NRM_O_19",
        "plot_number": 2,
        "site_type": "NRM"
      },
      "geometry": {
        "type": "Polygon",
        "coordinates": [
          [
            [
              452798.8213366883,
              5313652.6523112925
            ],
            [
              452772.1469580769,
              5313610.361915939
            ],
            [
              452727.380968218,
              5313638.597758913
            ],
            [
              452754.0553468279,
              5313680.888154269
            ],
            [
              452798.8213366883,
              5313652.6523112925
            ]
          ]
        ]
      }
    },
    {
      "type": "Feature",
      "properties": {
        "fid": 103,
        "site": "NRM_O_19",
        "plot_number": 3,
        "site_type": "NRM"
      },
      "geometry": {
        "type": "Polygon",
        "coordinates": [
          [
            [
              452843.23804847564,
              5313624.20986989
            ],
            [
              452816.2743056834,
              5313582.1033788435
            ],
            [
              452772.00227598555,
              5313610.453868094
            ],
            [
              452798.9660187779,
              5313652.560359137
            ],
            [
              452843.23804847564,
              5313624.20986989
            ]
          ]
        ]
      }
    },
    {
      "type": "Feature",
      "properties": {
        "fid": 104,
        "site": "NRM_O_19",
        "plot_number": 4,
        "site_type": "NRM"
      },
      "geometry": {
        "type": "Polygon",
        "coordinates": [
          [
            [
              452883.4188330873,
              5313598.355825781
            ],
            [
              452856.3634734582,
              5313556.308144169
            ],
            [
              452816.2284972633,
              5313582.13278356
            ],
            [
              452843.28385689465,
              5313624.180465172
            ],
            [
              452883.4188330873,
              5313598.355825781
            ]
          ]
        ]
      }
    },
    {
      "type": "Feature",
      "properties": {
        "fid": 105,
        "site": "NRM_O_19",
        "plot_number": 5,
        "site_type": "NRM"
      },
      "geometry": {
        "type": "Polygon",
        "coordinates": [
          [
            [
              452923.63380414946,
              5313578.443608991
            ],
            [
              452901.30011462106,
              5313533.708764342
            ],
            [
              452858.7243085095,
              5313554.96456265
            ],
            [
              452881.05799803673,
              5313599.699407299
            ],
            [
              452923.63380414946,
              5313578.443608991
            ]
          ]
        ]
      }
    }
  ],
  "crs": {
    "type": "name",
    "properties": {
      "name": "urn:ogc:def:crs:EPSG::7855"
    }
  }
}