{
  "type": "FeatureCollection",
  "name": "plots_ULM_80_MGA2020",
  "features": [
    {
      "type": "Feature",
      "properties": {
        "fid": 266,
        "site": "ULM_80",
        "plot_number": 1,
        "site_type": "ULM"
      },
      "geometry": {
        "type": "Polygon",
        "coordinates": [
          [
            [
              461242.6817695222,
              5261001.340488369
            ],
            [
              461232.9772111757,
              5260952.291313444
            ],
            [
              461193.68321428867,
              5260960.065774197
            ],
            [
              461203.3877726353,
              5261009.114949123
            ],
            [
              461242.6817695222,
              5261001.340488369
            ]
          ]
        ]
      }
    },
    {
      "type": "Feature",
      "properties": {
        "fid": 267,
        "site": "ULM_80",
        "plot_number": 2,
        "site_type": "ULM"
      },
      "geometry": {
        "type": "Polygon",
        "coordinates": [
          [
            [
              461299.77157361794,
              5260995.809877165
            ],
            [
              461294.84899162926,
              5260946.052785206
            ],
            [
              461235.3681993558,
              5260951.937354927
            ],
            [
              461240.2907813419,
              5261001.694446886
            ],
            [
              461299.77157361794,
              5260995.809877165
            ]
          ]
        ]
      }
    },
    {
      "type": "Feature",
      "properties": {
        "fid": 268,
        "site": "ULM_80",
        "plot_number": 3,
        "site_type": "ULM"
      },
      "geometry": {
        "type": "Polygon",
        "coordinates": [
          [
            [
              461348.6382226576,
              5260976.297182601
            ],
            [
              461329.0962799684,
              5260930.274226488
            ],
            [
              461287.53931128,
              5260947.9198531285
            ],
            [
              461307.08125397,
              5260993.942809245
            ],
            [
              461348.6382226576,
              5260976.297182601
            ]
          ]
        ]
      }
    },
    {
      "type": "Feature",
      "properties": {
        "fid": 269,
        "site": "ULM_80",
        "plot_number": 4,
        "site_type": "ULM"
      },
      "geometry": {
        "type": "Polygon",
        "coordinates": [
          [
            [
              461398.1374638147,
              5260965.782498687
            ],
            [
              461387.34113833535,
              5260916.962017636
            ],
            [
              461333.4690885744,
              5260928.875464019
            ],
            [
              461344.26541405334,
              5260977.695945069
            ],
            [
              461398.1374638147,
              5260965.782498687
            ]
          ]
        ]
      }
    },
    {
      "type": "Feature",
      "properties": {
        "fid": 270,
        "site": "ULM_80",
        "plot_number": 5,
        "site_type": "ULM"
      },
      "geometry": {
        "type": "Polygon",
        "coordinates": [
          [
            [
              461442.25997575134,
              5260952.947115612
            ],
            [
              461428.2357588999,
              5260904.954185349
            ],
            [
              461385.7271926474,
              5260917.375793028
            ],
            [
              461399.75140950247,
              5260965.368723292
            ],
            [
              461442.25997575134,
              5260952.947115612
            ]
          ]
        ]
      }
    }
  ],
  "crs": {
    "type": "name",
    "properties": {
      "name": "urn:ogc:def:crs:EPSG::7855"
    }
  }
}