{
  "type": "FeatureCollection",
  "name": "plots_NRO_O_56_MGA2020",
  "features": [
    {
      "type": "Feature",
      "properties": {
        "fid": 141,
        "site": "NRO_O_56",
        "plot_number": 1,
        "site_type": "NRO"
      },
      "geometry": {
        "type": "Polygon",
        "coordinates": [
          [
            [
              474971.2577391203,
              5261595.459255888
            ],
            [
              474950.4443243883,
              5261640.9213475855
            ],
            [
              474996.6531881245,
              5261662.076648837
            ],
            [
              475017.4666028551,
              5261616.6145571405
            ],
            [
              474971.2577391203,
              5261595.459255888
            ]
          ]
        ]
      }
    },
    {
      "type": "Feature",
      "properties": {
        "fid": 142,
        "site": "NRO_O_56",
        "plot_number": 2,
        "site_type": "NRO"
      },
      "geometry": {
        "type": "Polygon",
        "coordinates": [
          [
            [
              474928.3770159604,
              5261576.419410924
            ],
            [
              474908.0879496851,
              5261622.117920789
            ],
            [
              474950.7064986161,
              5261641.03955667
            ],
            [
              474970.9955648906,
              5261595.341046802
            ],
            [
              474928.3770159604,
              5261576.419410924
            ]
          ]
        ]
      }
    },
    {
      "type": "Feature",
      "properties": {
        "fid": 143,
        "site": "NRO_O_56",
        "plot_number": 3,
        "site_type": "NRO"
      },
      "geometry": {
        "type": "Polygon",
        "coordinates": [
          [
            [
              474886.61228363914,
              5261553.148799661
            ],
            [
              474862.3651867955,
              5261596.87611731
            ],
            [
              474906.1089343996,
              5261621.1323246835
            ],
            [
              474930.3560312463,
              5261577.405007033
            ],
            [
              474886.61228363914,
              5261553.148799661
            ]
          ]
        ]
      }
    },
    {
      "type": "Feature",
      "properties": {
        "fid": 144,
        "site": "NRO_O_56",
        "plot_number": 4,
        "site_type": "NRO"
      },
      "geometry": {
        "type": "Polygon",
        "coordinates": [
          [
            [
              474849.711334885,
              5261521.885564512
            ],
            [
              474817.7375415202,
              5261560.326123199
            ],
            [
              474858.50183853356,
              5261594.232737829
            ],
            [
              474890.4756319,
              5261555.792179141
            ],
            [
              474849.711334885,
              5261521.885564512
            ]
          ]
        ]
      }
    },
    {
      "type": "Feature",
      "properties": {
        "fid": 145,
        "site": "NRO_O_56",
        "plot_number": 5,
        "site_type": "NRO"
      },
      "geometry": {
        "type": "Polygon",
        "coordinates": [
          [
            [
              474805.45145069447,
              5261497.4200618295
            ],
            [
              474781.68872597103,
              5261541.412480814
            ],
            [
              474821.84307584236,
              5261563.102053349
            ],
            [
              474845.6058005665,
              5261519.109634363
            ],
            [
              474805.45145069447,
              5261497.4200618295
            ]
          ]
        ]
      }
    }
  ],
  "crs": {
    "type": "name",
    "properties": {
      "name": "urn:ogc:def:crs:EPSG::7855"
    }
  }
}