{
  "type": "FeatureCollection",
  "name": "plots_EPO_Y_15_MGA2020",
  "features": [
    {
      "type": "Feature",
      "properties": {
        "fid": 46,
        "site": "EPO_Y_15",
        "plot_number": 1,
        "site_type": "EPO"
      },
      "geometry": {
        "type": "Polygon",
        "coordinates": [
          [
            [
              456550.1966167379,
              5299307.285356198
            ],
            [
              456511.70360123814,
              5299275.374734592
            ],
            [
              456477.81867418194,
              5299316.249307282
            ],
            [
              456516.31168968184,
              5299348.15992889
            ],
            [
              456550.1966167379,
              5299307.285356198
            ]
          ]
        ]
      }
    },
    {
      "type": "Feature",
      "properties": {
        "fid": 47,
        "site": "EPO_Y_15",
        "plot_number": 2,
        "site_type": "EPO"
      },
      "geometry": {
        "type": "Polygon",
        "coordinates": [
          [
            [
              456587.33638127206,
              5299278.9631110225
            ],
            [
              456556.53027954855,
              5299239.580575424
            ],
            [
              456515.547058125,
              5299271.638777596
            ],
            [
              456546.35315985105,
              5299311.021313192
            ],
            [
              456587.33638127206,
              5299278.9631110225
            ]
          ]
        ]
      }
    },
    {
      "type": "Feature",
      "properties": {
        "fid": 48,
        "site": "EPO_Y_15",
        "plot_number": 3,
        "site_type": "EPO"
      },
      "geometry": {
        "type": "Polygon",
        "coordinates": [
          [
            [
              456628.22282147687,
              5299247.025743259
            ],
            [
              456597.44370517955,
              5299207.622113809
            ],
            [
              456556.5437722614,
              5299239.5700285
            ],
            [
              456587.32288855914,
              5299278.973657946
            ],
            [
              456628.22282147687,
              5299247.025743259
            ]
          ]
        ]
      }
    },
    {
      "type": "Feature",
      "properties": {
        "fid": 49,
        "site": "EPO_Y_15",
        "plot_number": 4,
        "site_type": "EPO"
      },
      "geometry": {
        "type": "Polygon",
        "coordinates": [
          [
            [
              456668.98353225325,
              5299211.695980346
            ],
            [
              456636.2116521762,
              5299173.933513665
            ],
            [
              456596.4473232907,
              5299208.442695193
            ],
            [
              456629.2192033654,
              5299246.205161874
            ],
            [
              456668.98353225325,
              5299211.695980346
            ]
          ]
        ]
      }
    },
    {
      "type": "Feature",
      "properties": {
        "fid": 50,
        "site": "EPO_Y_15",
        "plot_number": 5,
        "site_type": "EPO"
      },
      "geometry": {
        "type": "Polygon",
        "coordinates": [
          [
            [
              456706.52363852167,
              5299185.256386089
            ],
            [
              456677.62478075566,
              5299144.453738704
            ],
            [
              456638.1481633337,
              5299172.413423312
            ],
            [
              456667.0470210976,
              5299213.216070698
            ],
            [
              456706.52363852167,
              5299185.256386089
            ]
          ]
        ]
      }
    }
  ],
  "crs": {
    "type": "name",
    "properties": {
      "name": "urn:ogc:def:crs:EPSG::7855"
    }
  }
}