{
  "type": "FeatureCollection",
  "name": "plots_NRY_Y_15_MGA2020",
  "features": [
    {
      "type": "Feature",
      "properties": {
        "fid": 176,
        "site": "NRY_Y_15",
        "plot_number": 1,
        "site_type": "NRY"
      },
      "geometry": {
        "type": "Polygon",
        "coordinates": [
          [
            [
              460975.1458921959,
              5296750.369176023
            ],
            [
              460979.1302586562,
              5296700.528180468
            ],
            [
              460923.67200461053,
              5296696.094761656
            ],
            [
              460919.68763815006,
              5296745.9357572105
            ],
            [
              460975.1458921959,
              5296750.369176023
            ]
          ]
        ]
      }
    },
    {
      "type": "Feature",
      "properties": {
        "fid": 177,
        "site": "NRY_Y_15",
        "plot_number": 2,
        "site_type": "NRY"
      },
      "geometry": {
        "type": "Polygon",
        "coordinates": [
          [
            [
              461027.21282155276,
              5296751.393199684
            ],
            [
              461028.1513687134,
              5296701.402009029
            ],
            [
              460977.60734900687,
              5296700.453082919
            ],
            [
              460976.66880184656,
              5296750.444273572
            ],
            [
              461027.21282155276,
              5296751.393199684
            ]
          ]
        ]
      }
    },
    {
      "type": "Feature",
      "properties": {
        "fid": 178,
        "site": "NRY_Y_15",
        "plot_number": 3,
        "site_type": "NRY"
      },
      "geometry": {
        "type": "Polygon",
        "coordinates": [
          [
            [
              461074.1980564579,
              5296756.737954622
            ],
            [
              461079.73762336106,
              5296707.045770001
            ],
            [
              461030.4518785869,
              5296701.551512044
            ],
            [
              461024.91231168195,
              5296751.243696667
            ],
            [
              461074.1980564579,
              5296756.737954622
            ]
          ]
        ]
      }
    },
    {
      "type": "Feature",
      "properties": {
        "fid": 179,
        "site": "NRY_Y_15",
        "plot_number": 4,
        "site_type": "NRY"
      },
      "geometry": {
        "type": "Polygon",
        "coordinates": [
          [
            [
              461124.41781489406,
              5296759.351876588
            ],
            [
              461126.97224701074,
              5296709.417170316
            ],
            [
              461078.24505596654,
              5296706.924509175
            ],
            [
              461075.6906238501,
              5296756.859215449
            ],
            [
              461124.41781489406,
              5296759.351876588
            ]
          ]
        ]
      }
    },
    {
      "type": "Feature",
      "properties": {
        "fid": 180,
        "site": "NRY_Y_15",
        "plot_number": 5,
        "site_type": "NRY"
      },
      "geometry": {
        "type": "Polygon",
        "coordinates": [
          [
            [
              461178.2514538617,
              5296760.341988269
            ],
            [
              461179.15828424465,
              5296710.350212217
            ],
            [
              461126.14844614273,
              5296709.388635427
            ],
            [
              461125.2416157604,
              5296759.380411476
            ],
            [
              461178.2514538617,
              5296760.341988269
            ]
          ]
        ]
      }
    }
  ],
  "crs": {
    "type": "name",
    "properties": {
      "name": "urn:ogc:def:crs:EPSG::7855"
    }
  }
}