{
  "type": "FeatureCollection",
  "name": "plots_ULO_237_MGA2020",
  "features": [
    {
      "type": "Feature",
      "properties": {
        "fid": 291,
        "site": "ULO_237",
        "plot_number": 1,
        "site_type": "ULO"
      },
      "geometry": {
        "type": "Polygon",
        "coordinates": [
          [
            [
              488794.1124788211,
              5254739.222675703
            ],
            [
              488750.294916875,
              5254763.306306661
            ],
            [
              488774.2419380584,
              5254806.875321899
            ],
            [
              488818.0595000031,
              5254782.791690941
            ],
            [
              488794.1124788211,
              5254739.222675703
            ]
          ]
        ]
      }
    },
    {
      "type": "Feature",
      "properties": {
        "fid": 292,
        "site": "ULO_237",
        "plot_number": 2,
        "site_type": "ULO"
      },
      "geometry": {
        "type": "Polygon",
        "coordinates": [
          [
            [
              488762.62434030336,
              5254692.278039115
            ],
            [
              488721.15023931436,
              5254720.204710272
            ],
            [
              488751.4666473546,
              5254765.227826762
            ],
            [
              488792.94074834255,
              5254737.3011556035
            ],
            [
              488762.62434030336,
              5254692.278039115
            ]
          ]
        ]
      }
    },
    {
      "type": "Feature",
      "properties": {
        "fid": 293,
        "site": "ULO_237",
        "plot_number": 3,
        "site_type": "ULO"
      },
      "geometry": {
        "type": "Polygon",
        "coordinates": [
          [
            [
              488743.0413689381,
              5254651.416673532
            ],
            [
              488698.0698855486,
              5254673.269950098
            ],
            [
              488719.4015481136,
              5254717.168012976
            ],
            [
              488764.3730315034,
              5254695.314736411
            ],
            [
              488743.0413689381,
              5254651.416673532
            ]
          ]
        ]
      }
    },
    {
      "type": "Feature",
      "properties": {
        "fid": 294,
        "site": "ULO_237",
        "plot_number": 4,
        "site_type": "ULO"
      },
      "geometry": {
        "type": "Polygon",
        "coordinates": [
          [
            [
              488716.89195701136,
              5254601.407941187
            ],
            [
              488672.5882855839,
              5254624.585186769
            ],
            [
              488698.4037915289,
              5254673.931934606
            ],
            [
              488742.70746295684,
              5254650.754689027
            ],
            [
              488716.89195701136,
              5254601.407941187
            ]
          ]
        ]
      }
    },
    {
      "type": "Feature",
      "properties": {
        "fid": 295,
        "site": "ULO_237",
        "plot_number": 5,
        "site_type": "ULO"
      },
      "geometry": {
        "type": "Polygon",
        "coordinates": [
          [
            [
              488699.87081070786,
              5254557.638402793
            ],
            [
              488653.3268909013,
              5254575.904862326
            ],
            [
              488671.46816139383,
              5254622.129793744
            ],
            [
              488718.0120812016,
              5254603.863334213
            ],
            [
              488699.87081070786,
              5254557.638402793
            ]
          ]
        ]
      }
    }
  ],
  "crs": {
    "type": "name",
    "properties": {
      "name": "urn:ogc:def:crs:EPSG::7855"
    }
  }
}