{
  "type": "FeatureCollection",
  "name": "plots_PPY_O_31_MGA2020",
  "features": [
    {
      "type": "Feature",
      "properties": {
        "fid": 221,
        "site": "PPY_O_31",
        "plot_number": 1,
        "site_type": "PPY"
      },
      "geometry": {
        "type": "Polygon",
        "coordinates": [
          [
            [
              489325.6670452954,
              5255977.5566366
            ],
            [
              489288.27395996614,
              5255944.363908713
            ],
            [
              489258.1525438086,
              5255978.297024685
            ],
            [
              489295.5456291365,
              5256011.489752571
            ],
            [
              489325.6670452954,
              5255977.5566366
            ]
          ]
        ]
      }
    },
    {
      "type": "Feature",
      "properties": {
        "fid": 222,
        "site": "PPY_O_31",
        "plot_number": 2,
        "site_type": "PPY"
      },
      "geometry": {
        "type": "Polygon",
        "coordinates": [
          [
            [
              489360.65176386235,
              5255943.625864949
            ],
            [
              489325.7917232013,
              5255907.782070784
            ],
            [
              489289.54048230004,
              5255943.038375575
            ],
            [
              489324.40052296297,
              5255978.882169739
            ],
            [
              489360.65176386235,
              5255943.625864949
            ]
          ]
        ]
      }
    },
    {
      "type": "Feature",
      "properties": {
        "fid": 223,
        "site": "PPY_O_31",
        "plot_number": 3,
        "site_type": "PPY"
      },
      "geometry": {
        "type": "Polygon",
        "coordinates": [
          [
            [
              489398.2207858628,
              5255899.083496993
            ],
            [
              489359.9303276882,
              5255866.930101714
            ],
            [
              489324.0765144485,
              5255909.627270227
            ],
            [
              489362.3669726193,
              5255941.780665503
            ],
            [
              489398.2207858628,
              5255899.083496993
            ]
          ]
        ]
      }
    },
    {
      "type": "Feature",
      "properties": {
        "fid": 224,
        "site": "PPY_O_31",
        "plot_number": 4,
        "site_type": "PPY"
      },
      "geometry": {
        "type": "Polygon",
        "coordinates": [
          [
            [
              489428.4706110193,
              5255864.998436886
            ],
            [
              489391.06729152944,
              5255831.817241821
            ],
            [
              489360.3738970313,
              5255866.416201819
            ],
            [
              489397.77721652185,
              5255899.597396887
            ],
            [
              489428.4706110193,
              5255864.998436886
            ]
          ]
        ]
      }
    },
    {
      "type": "Feature",
      "properties": {
        "fid": 225,
        "site": "PPY_O_31",
        "plot_number": 5,
        "site_type": "PPY"
      },
      "geometry": {
        "type": "Polygon",
        "coordinates": [
          [
            [
              489454.91588707396,
              5255826.088404004
            ],
            [
              489413.43056164624,
              5255798.178409573
            ],
            [
              489389.0262885608,
              5255834.452842138
            ],
            [
              489430.51161398843,
              5255862.3628365705
            ],
            [
              489454.91588707396,
              5255826.088404004
            ]
          ]
        ]
      }
    }
  ],
  "crs": {
    "type": "name",
    "properties": {
      "name": "urn:ogc:def:crs:EPSG::7855"
    }
  }
}