{
  "type": "FeatureCollection",
  "name": "plots_PPO_Y_07_MGA2020",
  "features": [
    {
      "type": "Feature",
      "properties": {
        "fid": 191,
        "site": "PPO_Y_07",
        "plot_number": 1,
        "site_type": "PPO"
      },
      "geometry": {
        "type": "Polygon",
        "coordinates": [
          [
            [
              489116.6382203864,
              5253089.013291438
            ],
            [
              489080.32409293187,
              5253123.38310613
            ],
            [
              489115.05930597597,
              5253160.083302656
            ],
            [
              489151.3734334316,
              5253125.713487963
            ],
            [
              489116.6382203864,
              5253089.013291438
            ]
          ]
        ]
      }
    },
    {
      "type": "Feature",
      "properties": {
        "fid": 192,
        "site": "PPO_Y_07",
        "plot_number": 2,
        "site_type": "PPO"
      },
      "geometry": {
        "type": "Polygon",
        "coordinates": [
          [
            [
              489077.5022144886,
              5253062.575466999
            ],
            [
              489050.10926804953,
              5253104.404003917
            ],
            [
              489084.7846834422,
              5253127.112467243
            ],
            [
              489112.1776298791,
              5253085.283930326
            ],
            [
              489077.5022144886,
              5253062.575466999
            ]
          ]
        ]
      }
    },
    {
      "type": "Feature",
      "properties": {
        "fid": 193,
        "site": "PPO_Y_07",
        "plot_number": 3,
        "site_type": "PPO"
      },
      "geometry": {
        "type": "Polygon",
        "coordinates": [
          [
            [
              489045.78919394565,
              5253025.255018383
            ],
            [
              489008.2854854768,
              5253058.322704509
            ],
            [
              489045.05388703354,
              5253100.023578523
            ],
            [
              489082.55759550416,
              5253066.955892393
            ],
            [
              489045.78919394565,
              5253025.255018383
            ]
          ]
        ]
      }
    },
    {
      "type": "Feature",
      "properties": {
        "fid": 194,
        "site": "PPO_Y_07",
        "plot_number": 4,
        "site_type": "PPO"
      },
      "geometry": {
        "type": "Polygon",
        "coordinates": [
          [
            [
              489007.98723772087,
              5252983.887215399
            ],
            [
              488971.07928964344,
              5253017.618556666
            ],
            [
              489008.58336567215,
              5253058.6545320805
            ],
            [
              489045.49131375056,
              5253024.9231908135
            ],
            [
              489007.98723772087,
              5252983.887215399
            ]
          ]
        ]
      }
    },
    {
      "type": "Feature",
      "properties": {
        "fid": 195,
        "site": "PPO_Y_07",
        "plot_number": 5,
        "site_type": "PPO"
      },
      "geometry": {
        "type": "Polygon",
        "coordinates": [
          [
            [
              488978.0642346374,
              5252958.220170739
            ],
            [
              488945.7033997454,
              5252996.335474489
            ],
            [
              488973.3528462348,
              5253019.810537909
            ],
            [
              489005.7136811285,
              5252981.695234158
            ],
            [
              488978.0642346374,
              5252958.220170739
            ]
          ]
        ]
      }
    }
  ],
  "crs": {
    "type": "name",
    "properties": {
      "name": "urn:ogc:def:crs:EPSG::7855"
    }
  }
}