{
  "type": "FeatureCollection",
  "name": "plots_EPY_O_07_MGA2020",
  "features": [
    {
      "type": "Feature",
      "properties": {
        "fid": 66,
        "site": "EPY_O_07",
        "plot_number": 1,
        "site_type": "EPY"
      },
      "geometry": {
        "type": "Polygon",
        "coordinates": [
          [
            [
              455080.3179884751,
              5313955.17610743
            ],
            [
              455030.9433587763,
              5313947.2928368235
            ],
            [
              455023.64650283835,
              5313992.994624544
            ],
            [
              455073.02113253967,
              5314000.877895149
            ],
            [
              455080.3179884751,
              5313955.17610743
            ]
          ]
        ]
      }
    },
    {
      "type": "Feature",
      "properties": {
        "fid": 67,
        "site": "EPY_O_07",
        "plot_number": 2,
        "site_type": "EPY"
      },
      "geometry": {
        "type": "Polygon",
        "coordinates": [
          [
            [
              455078.43073219206,
              5313903.420478967
            ],
            [
              455028.4848800001,
              5313905.746819947
            ],
            [
              455030.65774752933,
              5313952.397642615
            ],
            [
              455080.60359972087,
              5313950.0713016335
            ],
            [
              455078.43073219206,
              5313903.420478967
            ]
          ]
        ]
      }
    },
    {
      "type": "Feature",
      "properties": {
        "fid": 68,
        "site": "EPY_O_07",
        "plot_number": 3,
        "site_type": "EPY"
      },
      "geometry": {
        "type": "Polygon",
        "coordinates": [
          [
            [
              455081.0344041396,
              5313858.105909394
            ],
            [
              455031.10886205675,
              5313855.3782251505
            ],
            [
              455028.49503505585,
              5313903.219807334
            ],
            [
              455078.4205771362,
              5313905.947491579
            ],
            [
              455081.0344041396,
              5313858.105909394
            ]
          ]
        ]
      }
    },
    {
      "type": "Feature",
      "properties": {
        "fid": 69,
        "site": "EPY_O_07",
        "plot_number": 4,
        "site_type": "EPY"
      },
      "geometry": {
        "type": "Polygon",
        "coordinates": [
          [
            [
              455084.3724404029,
              5313809.851928837
            ],
            [
              455034.4914612841,
              5313806.404040281
            ],
            [
              455031.1311435372,
              5313855.018122997
            ],
            [
              455081.01212265674,
              5313858.466011549
            ],
            [
              455084.3724404029,
              5313809.851928837
            ]
          ]
        ]
      }
    },
    {
      "type": "Feature",
      "properties": {
        "fid": 70,
        "site": "EPY_O_07",
        "plot_number": 5,
        "site_type": "EPY"
      },
      "geometry": {
        "type": "Polygon",
        "coordinates": [
          [
            [
              455089.06457893003,
              5313754.7581935935
            ],
            [
              455039.2446892668,
              5313750.518074778
            ],
            [
              455034.5220060112,
              5313806.007925151
            ],
            [
              455084.3418956748,
              5313810.248043967
            ],
            [
              455089.06457893003,
              5313754.7581935935
            ]
          ]
        ]
      }
    }
  ],
  "crs": {
    "type": "name",
    "properties": {
      "name": "urn:ogc:def:crs:EPSG::7855"
    }
  }
}