{
  "type": "FeatureCollection",
  "name": "plots_EPY_Y_04_MGA2020",
  "features": [
    {
      "type": "Feature",
      "properties": {
        "fid": 81,
        "site": "EPY_Y_04",
        "plot_number": 1,
        "site_type": "EPY"
      },
      "geometry": {
        "type": "Polygon",
        "coordinates": [
          [
            [
              490300.4393993203,
              5257391.320884621
            ],
            [
              490250.5218223982,
              5257388.451123437
            ],
            [
              490247.8407617208,
              5257435.086381331
            ],
            [
              490297.7583386404,
              5257437.956142513
            ],
            [
              490300.4393993203,
              5257391.320884621
            ]
          ]
        ]
      }
    },
    {
      "type": "Feature",
      "properties": {
        "fid": 82,
        "site": "EPY_Y_04",
        "plot_number": 2,
        "site_type": "EPY"
      },
      "geometry": {
        "type": "Polygon",
        "coordinates": [
          [
            [
              490298.9857406467,
              5257340.046639019
            ],
            [
              490249.0085603128,
              5257341.5570895905
            ],
            [
              490250.49202069314,
              5257390.641229313
            ],
            [
              490300.46920102567,
              5257389.130778741
            ],
            [
              490298.9857406467,
              5257340.046639019
            ]
          ]
        ]
      }
    },
    {
      "type": "Feature",
      "properties": {
        "fid": 83,
        "site": "EPY_Y_04",
        "plot_number": 3,
        "site_type": "EPY"
      },
      "geometry": {
        "type": "Polygon",
        "coordinates": [
          [
            [
              490295.32022303564,
              5257290.202428206
            ],
            [
              490245.4566328864,
              5257293.89328074
            ],
            [
              490249.0653554063,
              5257342.6472905725
            ],
            [
              490298.9289455549,
              5257338.9564380385
            ],
            [
              490295.32022303564,
              5257290.202428206
            ]
          ]
        ]
      }
    },
    {
      "type": "Feature",
      "properties": {
        "fid": 84,
        "site": "EPY_Y_04",
        "plot_number": 4,
        "site_type": "EPY"
      },
      "geometry": {
        "type": "Polygon",
        "coordinates": [
          [
            [
              490296.4277723387,
              5257246.532700767
            ],
            [
              490246.44064232823,
              5257245.398307467
            ],
            [
              490245.3948629569,
              5257291.480657821
            ],
            [
              490295.3819929664,
              5257292.615051121
            ],
            [
              490296.4277723387,
              5257246.532700767
            ]
          ]
        ]
      }
    },
    {
      "type": "Feature",
      "properties": {
        "fid": 85,
        "site": "EPY_Y_04",
        "plot_number": 5,
        "site_type": "EPY"
      },
      "geometry": {
        "type": "Polygon",
        "coordinates": [
          [
            [
              490290.97665072046,
              5257192.49779807
            ],
            [
              490241.2480794359,
              5257197.700606252
            ],
            [
              490246.5699216915,
              5257248.566908208
            ],
            [
              490296.2984929744,
              5257243.364100026
            ],
            [
              490290.97665072046,
              5257192.49779807
            ]
          ]
        ]
      }
    }
  ],
  "crs": {
    "type": "name",
    "properties": {
      "name": "urn:ogc:def:crs:EPSG::7855"
    }
  }
}