{
  "type": "FeatureCollection",
  "name": "plots_NRM_Y_41_MGA2020",
  "features": [
    {
      "type": "Feature",
      "properties": {
        "fid": 111,
        "site": "NRM_Y_41",
        "plot_number": 1,
        "site_type": "NRM"
      },
      "geometry": {
        "type": "Polygon",
        "coordinates": [
          [
            [
              466613.60603453603,
              5264304.908330486
            ],
            [
              466564.32642344007,
              5264313.365276977
            ],
            [
              466572.2034608136,
              5264359.265690182
            ],
            [
              466621.48307191144,
              5264350.808743694
            ],
            [
              466613.60603453603,
              5264304.908330486
            ]
          ]
        ]
      }
    },
    {
      "type": "Feature",
      "properties": {
        "fid": 112,
        "site": "NRM_Y_41",
        "plot_number": 2,
        "site_type": "NRM"
      },
      "geometry": {
        "type": "Polygon",
        "coordinates": [
          [
            [
              466605.2914016628,
              5264254.295127255
            ],
            [
              466555.95282691723,
              5264262.40099278
            ],
            [
              466564.29694161797,
              5264313.189736494
            ],
            [
              466613.63551636075,
              5264305.08387097
            ],
            [
              466605.2914016628,
              5264254.295127255
            ]
          ]
        ]
      }
    },
    {
      "type": "Feature",
      "properties": {
        "fid": 113,
        "site": "NRM_Y_41",
        "plot_number": 3,
        "site_type": "NRM"
      },
      "geometry": {
        "type": "Polygon",
        "coordinates": [
          [
            [
              466601.74107635947,
              5264211.468027209
            ],
            [
              466551.919451884,
              5264215.687713023
            ],
            [
              466555.71130205033,
              5264260.457902922
            ],
            [
              466605.5329265271,
              5264256.23821711
            ],
            [
              466601.74107635947,
              5264211.468027209
            ]
          ]
        ]
      }
    },
    {
      "type": "Feature",
      "properties": {
        "fid": 114,
        "site": "NRM_Y_41",
        "plot_number": 4,
        "site_type": "NRM"
      },
      "geometry": {
        "type": "Polygon",
        "coordinates": [
          [
            [
              466596.5037876209,
              5264156.2244086005
            ],
            [
              466546.7270841239,
              5264160.944557198
            ],
            [
              466551.9419123722,
              5264215.937944415
            ],
            [
              466601.71861586935,
              5264211.217795817
            ],
            [
              466596.5037876209,
              5264156.2244086005
            ]
          ]
        ]
      }
    },
    {
      "type": "Feature",
      "properties": {
        "fid": 115,
        "site": "NRM_Y_41",
        "plot_number": 5,
        "site_type": "NRM"
      },
      "geometry": {
        "type": "Polygon",
        "coordinates": [
          [
            [
              466588.90375070745,
              5264104.380317537
            ],
            [
              466539.4371137097,
              5264111.66398679
            ],
            [
              466546.88211737166,
              5264162.226317527
            ],
            [
              466596.3487543699,
              5264154.942648274
            ],
            [
              466588.90375070745,
              5264104.380317537
            ]
          ]
        ]
      }
    }
  ],
  "crs": {
    "type": "name",
    "properties": {
      "name": "urn:ogc:def:crs:EPSG::7855"
    }
  }
}