{
  "type": "FeatureCollection",
  "name": "plots_EPO_O_13_MGA2020",
  "features": [
    {
      "type": "Feature",
      "properties": {
        "fid": 34,
        "site": "EPO_O_13",
        "plot_number": 1,
        "site_type": "EPO"
      },
      "geometry": {
        "type": "Polygon",
        "coordinates": [
          [
            [
              490023.3509136736,
              5257490.657806506
            ],
            [
              489990.3304360134,
              5257528.203086769
            ],
            [
              490024.8567931486,
              5257558.56846949
            ],
            [
              490057.8772708093,
              5257521.023189228
            ],
            [
              490023.3509136736,
              5257490.657806506
            ]
          ]
        ]
      }
    },
    {
      "type": "Feature",
      "properties": {
        "fid": 35,
        "site": "EPO_O_13",
        "plot_number": 2,
        "site_type": "EPO"
      },
      "geometry": {
        "type": "Polygon",
        "coordinates": [
          [
            [
              489989.997975349,
              5257455.582868213
            ],
            [
              489953.8321182818,
              5257490.108667226
            ],
            [
              489988.75774631073,
              5257526.693346144
            ],
            [
              490024.9236033776,
              5257492.16754713
            ],
            [
              489989.997975349,
              5257455.582868213
            ]
          ]
        ]
      }
    },
    {
      "type": "Feature",
      "properties": {
        "fid": 36,
        "site": "EPO_O_13",
        "plot_number": 3,
        "site_type": "EPO"
      },
      "geometry": {
        "type": "Polygon",
        "coordinates": [
          [
            [
              489955.6099760018,
              5257418.308611352
            ],
            [
              489918.8628766915,
              5257452.215110837
            ],
            [
              489953.5414971608,
              5257489.79901746
            ],
            [
              489990.2885964702,
              5257455.8925179755
            ],
            [
              489955.6099760018,
              5257418.308611352
            ]
          ]
        ]
      }
    },
    {
      "type": "Feature",
      "properties": {
        "fid": 37,
        "site": "EPO_O_13",
        "plot_number": 4,
        "site_type": "EPO"
      },
      "geometry": {
        "type": "Polygon",
        "coordinates": [
          [
            [
              489923.6575338028,
              5257380.260427068
            ],
            [
              489885.38553680986,
              5257412.435794372
            ],
            [
              489918.10042784986,
              5257451.349544749
            ],
            [
              489956.3724248403,
              5257419.174177442
            ],
            [
              489923.6575338028,
              5257380.260427068
            ]
          ]
        ]
      }
    },
    {
      "type": "Feature",
      "properties": {
        "fid": 38,
        "site": "EPO_O_13",
        "plot_number": 5,
        "site_type": "EPO"
      },
      "geometry": {
        "type": "Polygon",
        "coordinates": [
          [
            [
              489898.1803655941,
              5257347.35001087
            ],
            [
              489858.6576784006,
              5257377.976097987
            ],
            [
              489884.76019171026,
              5257411.6611542795
            ],
            [
              489924.28287890257,
              5257381.0350671625
            ],
            [
              489898.1803655941,
              5257347.35001087
            ]
          ]
        ]
      }
    }
  ],
  "crs": {
    "type": "name",
    "properties": {
      "name": "urn:ogc:def:crs:EPSG::7855"
    }
  }
}