{
  "type": "FeatureCollection",
  "name": "plots_PPY_O_24_MGA2020",
  "features": [
    {
      "type": "Feature",
      "properties": {
        "fid": 216,
        "site": "PPY_O_24",
        "plot_number": 1,
        "site_type": "PPY"
      },
      "geometry": {
        "type": "Polygon",
        "coordinates": [
          [
            [
              458097.88378035405,
              5301576.534078305
            ],
            [
              458053.0368808959,
              5301554.426260166
            ],
            [
              458033.55260188313,
              5301593.95116925
            ],
            [
              458078.39950134186,
              5301616.058987388
            ],
            [
              458097.88378035405,
              5301576.534078305
            ]
          ]
        ]
      }
    },
    {
      "type": "Feature",
      "properties": {
        "fid": 217,
        "site": "PPY_O_24",
        "plot_number": 2,
        "site_type": "PPY"
      },
      "geometry": {
        "type": "Polygon",
        "coordinates": [
          [
            [
              458119.6740264237,
              5301528.248899954
            ],
            [
              458074.09411894594,
              5301507.69477511
            ],
            [
              458052.670376886,
              5301555.203106816
            ],
            [
              458098.2502843628,
              5301575.757231656
            ],
            [
              458119.6740264237,
              5301528.248899954
            ]
          ]
        ]
      }
    },
    {
      "type": "Feature",
      "properties": {
        "fid": 218,
        "site": "PPY_O_24",
        "plot_number": 3,
        "site_type": "PPY"
      },
      "geometry": {
        "type": "Polygon",
        "coordinates": [
          [
            [
              458140.0957483395,
              5301477.834286219
            ],
            [
              458093.74686471466,
              5301459.078460446
            ],
            [
              458073.7096308706,
              5301508.5939246435
            ],
            [
              458120.0585144952,
              5301527.349750417
            ],
            [
              458140.0957483395,
              5301477.834286219
            ]
          ]
        ]
      }
    },
    {
      "type": "Feature",
      "properties": {
        "fid": 219,
        "site": "PPY_O_24",
        "plot_number": 4,
        "site_type": "PPY"
      },
      "geometry": {
        "type": "Polygon",
        "coordinates": [
          [
            [
              458155.54330654413,
              5301431.711928132
            ],
            [
              458108.11600838474,
              5301415.879954064
            ],
            [
              458093.2076574483,
              5301460.540386299
            ],
            [
              458140.63495560584,
              5301476.372360367
            ],
            [
              458155.54330654413,
              5301431.711928132
            ]
          ]
        ]
      }
    },
    {
      "type": "Feature",
      "properties": {
        "fid": 220,
        "site": "PPY_O_24",
        "plot_number": 5,
        "site_type": "PPY"
      },
      "geometry": {
        "type": "Polygon",
        "coordinates": [
          [
            [
              458174.86677975795,
              5301385.304198619
            ],
            [
              458128.684196441,
              5301366.1425438905
            ],
            [
              458108.73836580565,
              5301414.215113734
            ],
            [
              458154.92094912234,
              5301433.376768462
            ],
            [
              458174.86677975795,
              5301385.304198619
            ]
          ]
        ]
      }
    }
  ],
  "crs": {
    "type": "name",
    "properties": {
      "name": "urn:ogc:def:crs:EPSG::7855"
    }
  }
}