{
  "type": "FeatureCollection",
  "name": "plots_NRO_138_MGA2020",
  "features": [
    {
      "type": "Feature",
      "properties": {
        "fid": 121,
        "site": "NRO_138",
        "plot_number": 1,
        "site_type": "NRO"
      },
      "geometry": {
        "type": "Polygon",
        "coordinates": [
          [
            [
              459257.4542180435,
              5297829.473964795
            ],
            [
              459208.4747173771,
              5297819.423664905
            ],
            [
              459199.16673949774,
              5297864.785506209
            ],
            [
              459248.1462401681,
              5297874.8358061
            ],
            [
              459257.4542180435,
              5297829.473964795
            ]
          ]
        ]
      }
    },
    {
      "type": "Feature",
      "properties": {
        "fid": 122,
        "site": "NRO_138",
        "plot_number": 2,
        "site_type": "NRO"
      },
      "geometry": {
        "type": "Polygon",
        "coordinates": [
          [
            [
              459272.73189631035,
              5297777.473519109
            ],
            [
              459224.7377877139,
              5297763.453335314
            ],
            [
              459208.96741341316,
              5297817.438722953
            ],
            [
              459256.961522008,
              5297831.45890675
            ],
            [
              459272.73189631035,
              5297777.473519109
            ]
          ]
        ]
      }
    },
    {
      "type": "Feature",
      "properties": {
        "fid": 123,
        "site": "NRO_138",
        "plot_number": 3,
        "site_type": "NRO"
      },
      "geometry": {
        "type": "Polygon",
        "coordinates": [
          [
            [
              459290.10560269764,
              5297732.445351799
            ],
            [
              459243.426037361,
              5297714.528371198
            ],
            [
              459225.3950593475,
              5297761.504936911
            ],
            [
              459272.0746246789,
              5297779.421917513
            ],
            [
              459290.10560269764,
              5297732.445351799
            ]
          ]
        ]
      }
    },
    {
      "type": "Feature",
      "properties": {
        "fid": 124,
        "site": "NRO_138",
        "plot_number": 4,
        "site_type": "NRO"
      },
      "geometry": {
        "type": "Polygon",
        "coordinates": [
          [
            [
              459306.9506417423,
              5297686.427212463
            ],
            [
              459259.9964335518,
              5297669.242849021
            ],
            [
              459243.2887159355,
              5297714.894679781
            ],
            [
              459290.242924124,
              5297732.079043222
            ],
            [
              459306.9506417423,
              5297686.427212463
            ]
          ]
        ]
      }
    },
    {
      "type": "Feature",
      "properties": {
        "fid": 125,
        "site": "NRO_138",
        "plot_number": 5,
        "site_type": "NRO"
      },
      "geometry": {
        "type": "Polygon",
        "coordinates": [
          [
            [
              459323.7276862877,
              5297645.932257935
            ],
            [
              459277.52574895835,
              5297626.81731612
            ],
            [
              459260.37256898143,
              5297668.277559835
            ],
            [
              459306.57450631127,
              5297687.39250165
            ],
            [
              459323.7276862877,
              5297645.932257935
            ]
          ]
        ]
      }
    }
  ],
  "crs": {
    "type": "name",
    "properties": {
      "name": "urn:ogc:def:crs:EPSG::7855"
    }
  }
}