{
  "type": "FeatureCollection",
  "name": "plots_AGG_O_07_MGA2020",
  "features": [
    {
      "type": "Feature",
      "properties": {
        "fid": 11,
        "site": "AGG_O_07",
        "plot_number": 1,
        "site_type": "AGG"
      },
      "geometry": {
        "type": "Polygon",
        "coordinates": [
          [
            [
              464742.7982296669,
              5299401.839020812
            ],
            [
              464694.0062046385,
              5299390.9148134
            ],
            [
              464683.1541008083,
              5299439.384794029
            ],
            [
              464731.94612583914,
              5299450.309001439
            ],
            [
              464742.7982296669,
              5299401.839020812
            ]
          ]
        ]
      }
    },
    {
      "type": "Feature",
      "properties": {
        "fid": 12,
        "site": "AGG_O_07",
        "plot_number": 2,
        "site_type": "AGG"
      },
      "geometry": {
        "type": "Polygon",
        "coordinates": [
          [
            [
              464731.83120198897,
              5299316.648604007
            ],
            [
              464686.6472654625,
              5299295.23804834
            ],
            [
              464665.70325300854,
              5299339.43741169
            ],
            [
              464710.8871895326,
              5299360.8479673555
            ],
            [
              464731.83120198897,
              5299316.648604007
            ]
          ]
        ]
      }
    },
    {
      "type": "Feature",
      "properties": {
        "fid": 13,
        "site": "AGG_O_07",
        "plot_number": 3,
        "site_type": "AGG"
      },
      "geometry": {
        "type": "Polygon",
        "coordinates": [
          [
            [
              464748.9633852039,
              5299266.244659941
            ],
            [
              464701.5708553997,
              5299250.308909798
            ],
            [
              464685.5429688209,
              5299297.975451103
            ],
            [
              464732.9354986267,
              5299313.911201246
            ],
            [
              464748.9633852039,
              5299266.244659941
            ]
          ]
        ]
      }
    },
    {
      "type": "Feature",
      "properties": {
        "fid": 14,
        "site": "AGG_O_07",
        "plot_number": 4,
        "site_type": "AGG"
      },
      "geometry": {
        "type": "Polygon",
        "coordinates": [
          [
            [
              464765.1370413104,
              5299221.293939862
            ],
            [
              464718.08786747453,
              5299204.371314323
            ],
            [
              464701.7425333829,
              5299249.815472099
            ],
            [
              464748.79170721985,
              5299266.73809764
            ],
            [
              464765.1370413104,
              5299221.293939862
            ]
          ]
        ]
      }
    },
    {
      "type": "Feature",
      "properties": {
        "fid": 15,
        "site": "AGG_O_07",
        "plot_number": 5,
        "site_type": "AGG"
      },
      "geometry": {
        "type": "Polygon",
        "coordinates": [
          [
            [
              464808.51213074615,
              5299232.6370385
            ],
            [
              464813.0625018615,
              5299182.844527652
            ],
            [
              464765.4776241968,
              5299178.495904753
            ],
            [
              464760.9272530833,
              5299228.288415603
            ],
            [
              464808.51213074615,
              5299232.6370385
            ]
          ]
        ]
      }
    }
  ],
  "crs": {
    "type": "name",
    "properties": {
      "name": "urn:ogc:def:crs:EPSG::7855"
    }
  }
}