{
  "type": "FeatureCollection",
  "name": "plots_NRY_Y_12_MGA2020",
  "features": [
    {
      "type": "Feature",
      "properties": {
        "fid": 171,
        "site": "NRY_Y_12",
        "plot_number": 1,
        "site_type": "NRY"
      },
      "geometry": {
        "type": "Polygon",
        "coordinates": [
          [
            [
              487395.6879290622,
              5255822.917356447
            ],
            [
              487386.2482260555,
              5255773.816521199
            ],
            [
              487338.7601143764,
              5255782.946175885
            ],
            [
              487348.1998173808,
              5255832.047011133
            ],
            [
              487395.6879290622,
              5255822.917356447
            ]
          ]
        ]
      }
    },
    {
      "type": "Feature",
      "properties": {
        "fid": 172,
        "site": "NRY_Y_12",
        "plot_number": 2,
        "site_type": "NRY"
      },
      "geometry": {
        "type": "Polygon",
        "coordinates": [
          [
            [
              487441.02191007166,
              5255817.379179167
            ],
            [
              487434.8975853358,
              5255767.755670004
            ],
            [
              487387.90591519064,
              5255773.555184243
            ],
            [
              487394.0302399286,
              5255823.178693404
            ],
            [
              487441.02191007166,
              5255817.379179167
            ]
          ]
        ]
      }
    },
    {
      "type": "Feature",
      "properties": {
        "fid": 173,
        "site": "NRY_Y_12",
        "plot_number": 3,
        "site_type": "NRY"
      },
      "geometry": {
        "type": "Polygon",
        "coordinates": [
          [
            [
              487493.0034773008,
              5255796.607562544
            ],
            [
              487473.67901880754,
              5255750.492865116
            ],
            [
              487428.297518458,
              5255769.510075868
            ],
            [
              487447.6219769499,
              5255815.6247733
            ],
            [
              487493.0034773008,
              5255796.607562544
            ]
          ]
        ]
      }
    },
    {
      "type": "Feature",
      "properties": {
        "fid": 174,
        "site": "NRY_Y_12",
        "plot_number": 4,
        "site_type": "NRY"
      },
      "geometry": {
        "type": "Polygon",
        "coordinates": [
          [
            [
              487540.4548919321,
              5255777.639510156
            ],
            [
              487521.89283041377,
              5255731.212687226
            ],
            [
              487474.06021729467,
              5255750.336802367
            ],
            [
              487492.6222788113,
              5255796.763625296
            ],
            [
              487540.4548919321,
              5255777.639510156
            ]
          ]
        ]
      }
    },
    {
      "type": "Feature",
      "properties": {
        "fid": 175,
        "site": "NRY_Y_12",
        "plot_number": 5,
        "site_type": "NRY"
      },
      "geometry": {
        "type": "Polygon",
        "coordinates": [
          [
            [
              487586.3585652744,
              5255761.422704372
            ],
            [
              487569.6837069884,
              5255714.2851491105
            ],
            [
              487522.83643202955,
              5255730.85732106
            ],
            [
              487539.5112903145,
              5255777.994876322
            ],
            [
              487586.3585652744,
              5255761.422704372
            ]
          ]
        ]
      }
    }
  ],
  "crs": {
    "type": "name",
    "properties": {
      "name": "urn:ogc:def:crs:EPSG::7855"
    }
  }
}